STARLINK-2410           
1 47825U 21018AQ  25195.42325771 -.00004145  00000+0 -25956-3 0  9996
2 47825  53.0537 241.2388 0000889  88.9150 271.1940 15.06401672240681
STARLINK-2411           
1 47826U 21018AR  25195.41957178 -.00001388  00000+0 -74310-4 0  9993
2 47826  53.0539 241.2560 0000878  23.6699 336.4331 15.06393774240680
STARLINK-2413           
1 47827U 21018AS  25195.40209570 -.00001369  00000+0 -73056-4 0  9994
2 47827  53.0547 231.5774 0001081  87.0314 273.0799 15.06390221240873
STARLINK-2415           
1 47828U 21018AT  25195.47026364 -.00000682  00000+0 -26952-4 0  9990
2 47828  53.0543 251.0307 0000909  82.3137 277.7956 15.06385507240550
STARLINK-2416           
1 47829U 21018AU  25194.96448285  .00163290  26263-4  10000-3 0  9997
2 47829  53.0356 214.4378 0009244 357.7845  80.1527 16.17608889240677
STARLINK-2419           
1 47830U 21018AV  25195.41864992 -.00000690  00000+0 -27443-4 0  9999
2 47830  53.0541 251.2610 0001148  86.0505 274.0615 15.06393528240538
STARLINK-2420           
1 47831U 21018AW  25195.35276866 -.00000919  00000+0 -42790-4 0  9996
2 47831  53.0539 226.5539 0001205  83.5965 276.5161 15.06395406240931
STARLINK-2422           
1 47832U 21018AX  25195.37534095  .00000535  00000+0  54771-4 0  9994
2 47832  53.0542 241.4550 0000926  84.9419 275.1676 15.06394880240675
STARLINK-2423           
1 47833U 21018AY  25195.53383737  .00000011  00000+0  19591-4 0  9998
2 47833  53.0541 240.7434 0001019  82.1052 278.0053 15.06394300240752
STARLINK-2424           
1 47834U 21018AZ  25195.41218998  .00001077  00000+0  91235-4 0  9990
2 47834  53.0541 241.2921 0001288 100.1754 259.9381 15.06386209240737
STARLINK-2426           
1 47836U 21018BB  25195.43064351 -.00000256  00000+0  16975-5 0  9994
2 47836  53.0549 241.2948 0000705  69.2959 290.8105 15.06393135240689
STARLINK-2427           
1 47837U 21018BC  25195.37347890  .00003681  00000+0  26574-3 0  9998
2 47837  53.0518 221.4617 0001232  79.4805 280.6323 15.06420521240968
STARLINK-2429           
1 47838U 21018BD  25195.45276364  .00002797  00000+0  20657-3 0  9998
2 47838  53.0528 241.1074 0000995  91.4771 268.6332 15.06397002240689
STARLINK-2431           
1 47839U 21018BE  25195.34862235 -.00000483  00000+0 -13560-4 0  9993
2 47839  53.0535 211.5739 0001263  85.4997 274.6136 15.06392138241101
STARLINK-2432           
1 47840U 21018BF  25195.35875355 -.00000938  00000+0 -44096-4 0  9996
2 47840  53.0549 221.5299 0001134  87.2390 272.8729 15.06393206240951
STARLINK-2433           
1 47841U 21018BG  25195.48776467  .00000700  00000+0  65854-4 0  9995
2 47841  53.0537 220.9484 0001186  77.8540 282.2582 15.06408370240970
STARLINK-2435           
1 47843U 21018BJ  25195.44675794 -.00000825  00000+0 -36547-4 0  9991
2 47843  53.0536 246.1339 0000962  83.5707 276.5391 15.06389300240638
STARLINK-2446           
1 47844U 21018BK  25195.51172173  .00000115  00000+0  26607-4 0  9999
2 47844  53.0539 240.8411 0000786  80.9565 279.1513 15.06396044240695
STARLINK-2453           
1 47845U 21018BL  25195.39745618 -.00000911  00000+0 -42295-4 0  9993
2 47845  53.0536 241.3563 0000998  72.9793 287.1305 15.06393306240681
STARLINK-2280           
1 47861U 21021B   25195.48269717 -.00001304  00000+0 -68642-4 0  9997
2 47861  53.0530 255.9734 0001082  85.9552 274.1560 15.06401976240363
STARLINK-2291           
1 47862U 21021C   25195.52923447 -.00000893  00000+0 -41066-4 0  9993
2 47862  53.0552 250.7643 0001120  93.5881 266.5236 15.06379855240436
STARLINK-2326           
1 47870U 21021L   25195.60617523  .00000323  00000+0  40555-4 0  9994
2 47870  53.0556 275.4191 0000865  88.4186 271.6902 15.06393894239992
STARLINK-2329           
1 47873U 21021P   25195.43339398  .00001700  00000+0  13298-3 0  9992
2 47873  53.0529 251.1921 0000928  82.6483 277.4612 15.06392355240415
STARLINK-2330           
1 47874U 21021Q   25195.31037694 -.00000286  00000+0 -34013-6 0  9995
2 47874  53.0540 206.7539 0001140  79.1074 281.0043 15.06391786241039
STARLINK-2336           
1 47879U 21021V   25195.50296001 -.00004740  00000+0 -29959-3 0  9999
2 47879  53.0545 275.8859 0001357  90.3216 269.7928 15.06391645240256
STARLINK-2340           
1 47882U 21021Y   25195.50027489  .00061386  00000+0  12773-2 0  9997
2 47882  53.0466 217.5679 0003210 336.1693  23.9164 15.45061757241079
STARLINK-2342           
1 47883U 21021Z   25195.58129535 -.00001746  00000+0 -98345-4 0  9998
2 47883  53.0551 265.5302 0001179  86.6643 273.4481 15.06394166240405
STARLINK-2343           
1 47884U 21021AA  25195.56425282 -.00000086  00000+0  13125-4 0  9993
2 47884  53.0547 270.6094 0001201  91.3416 268.7710 15.06396479240156
STARLINK-2346           
1 47887U 21021AD  25195.51633301 -.00001933  00000+0 -11095-3 0  9990
2 47887  53.0554 270.8224 0001320  90.7344 269.3796 15.06390679240156
STARLINK-2354           
1 47894U 21021AL  25195.44722077  .00001705  00000+0  13343-3 0  9992
2 47894  53.0522 261.1306 0001188  88.8157 271.2968 15.06377348240235
STARLINK-2355           
1 47895U 21021AM  25195.45827536 -.00000597  00000+0 -21199-4 0  9999
2 47895  53.0550 261.0807 0001163  86.4883 273.6239 15.06388930240264
STARLINK-2356           
1 47896U 21021AN  25195.51771306 -.00001767  00000+0 -99780-4 0  9991
2 47896  53.0552 275.8190 0001154  93.7898 266.3222 15.06387378240033
STARLINK-2358           
1 47898U 21021AQ  25195.58359456 -.00001193  00000+0 -61215-4 0  9993
2 47898  53.0548 260.5173 0001111  85.5715 274.5401 15.06390989240258
STARLINK-2361           
1 47901U 21021AT  25195.56978870 -.00000917  00000+0 -42716-4 0  9991
2 47901  53.0537 250.6651 0001045  83.1100 277.0007 15.06396207240439
STARLINK-2363           
1 47903U 21021AV  25195.44349531 -.00001754  00000+0 -98935-4 0  9990
2 47903  53.0534 251.1397 0001098  94.7255 265.3860 15.06395120240764
STARLINK-2364           
1 47904U 21021AW  25195.44077142  .00000108  00000+0  26132-4 0  9997
2 47904  53.0541 251.1637 0001133  88.5383 271.5736 15.06396536240407
STARLINK-2367           
1 47907U 21021AZ  25195.57899732 -.00000748  00000+0 -31308-4 0  9994
2 47907  53.0576 270.5424 0001519  97.4141 262.7021 15.06389524240123
STARLINK-2368           
1 47908U 21021BA  25195.58635538 -.00004825  00000+0 -30514-3 0  9995
2 47908  53.0552 270.5073 0001160  91.7226 268.3896 15.06409229240151
STARLINK-2370           
1 47910U 21021BC  25195.58731042  .00000677  00000+0  64298-4 0  9991
2 47910  53.0543 260.6644 0001300  92.4700 267.6437 15.06405558240311
STARLINK-2371           
1 47911U 21021BD  25195.52143120 -.00002076  00000+0 -12057-3 0  9992
2 47911  53.0556 276.0454 0001516 102.9242 257.1916 15.06388110239928
STARLINK-2378           
1 47916U 21021BJ  25195.56240005 -.00000777  00000+0 -33287-4 0  9996
2 47916  53.0542 250.6165 0000999  86.5845 273.5258 15.06393145240427
STARLINK-2405           
1 47919U 21021BM  25195.49421260 -.00000823  00000+0 -36349-4 0  9999
2 47919  53.0546 270.9202 0001087  91.6991 268.4123 15.06392193240133
STARLINK-1647           
1 47978U 21024B   25195.59051012 -.00001742  00000+0 -98129-4 0  9997
2 47978  53.0591 325.4920 0001744 105.9637 254.1544 15.06387881238670
STARLINK-2303           
1 47981U 21024E   25195.57945414 -.00000995  00000+0 -47920-4 0  9999
2 47981  53.0554 325.5362 0001192  98.0073 262.1051 15.06387932238676
STARLINK-2273           
1 47993U 21024S   25195.54258339  .00001519  00000+0  12083-3 0  9994
2 47993  53.0547 285.7022 0001207  95.2626 264.8500 15.06403887239229
STARLINK-2309           
1 47995U 21024U   25195.58335648  .00319490  00000+0  12318-2 0  9999
2 47995  53.0380 230.2805 0018133 334.3758 127.6021 15.85689395  5973
STARLINK-2266           
1 47997U 21024W   25195.59465686 -.00001537  00000+0 -84361-4 0  9999
2 47997  53.0540 300.4713 0001119  87.7845 272.3272 15.06390764239026
STARLINK-2270           
1 48000U 21024Z   25195.48317955  .00000205  00000+0  32633-4 0  9992
2 48000  53.0535 231.1727 0000678  77.6049 282.5016 15.06393162239938
STARLINK-2153           
1 48009U 21024AJ  25195.62184080 -.00003288  00000+0 -20205-3 0  9995
2 48009  53.0551 305.3453 0001345  72.0310 288.0825 15.06382737238908
STARLINK-2226           
1 48010U 21024AK  25195.56838251  .00000820  00000+0  73932-4 0  9999
2 48010  53.0577 325.5890 0001417  81.2632 278.8517 15.06399693238618
STARLINK-2282           
1 48018U 21024AT  25195.45338512  .00104786  00000+0  14331-2 0  9992
2 48018  53.0252 263.1241 0005777 319.6809  40.3773 15.56617725239543
STARLINK-2285           
1 48019U 21024AU  25195.59834997 -.00001385  00000+0 -74136-4 0  9990
2 48019  53.0562 300.4567 0001412  94.5844 265.5307 15.06389895238962
STARLINK-2301           
1 48021U 21024AW  25195.58335648  .00176823  00000+0  72621-3 0  9995
2 48021  53.0479 232.3652 0007640  18.2719 119.1337 15.84952583  6059
STARLINK-2298           
1 48022U 21024AX  25195.61496586 -.00001919  00000+0 -11000-3 0  9998
2 48022  53.0568 320.6590 0001522  87.1449 272.9715 15.06390758238744
STARLINK-2292           
1 48023U 21024AY  25195.60387267 -.00000569  00000+0 -19331-4 0  9999
2 48023  53.0534 320.4255 0001310  90.5517 269.5622 15.06387246238740
STARLINK-2299           
1 48029U 21024BE  25195.58176302 -.00000455  00000+0 -11681-4 0  9992
2 48029  53.0553 320.5260 0001190  92.2613 267.8513 15.06387758238744
STARLINK-2404           
1 48093U 21027B   25195.16619805  .00001512  00000+0  12040-3 0  9992
2 48093  53.0539 152.5926 0001393  97.2462 262.8685 15.06402924236604
STARLINK-2412           
1 48094U 21027C   25195.31636358 -.00000442  00000+0 -10790-4 0  9996
2 48094  53.0538 161.7191 0001252  82.3195 277.7936 15.06394987236492
STARLINK-2414           
1 48095U 21027D   25195.32373954  .00000148  00000+0  28814-4 0  9995
2 48095  53.0539 161.6845 0001367  90.1245 269.9901 15.06395350236501
